ONEWEB-0045             
1 45151U 20008W   24222.56387320 -.00000177  00000+0 -53461-3 0  9990
2 45151  87.8999 155.7429 0002012  75.1557 284.9794 13.11418591221727
ONEWEB-0047             
1 45152U 20008X   24222.39261554  .00000722  00000+0  20326-2 0  9999
2 45152  87.8976 170.8975 0002106  79.7983 280.3382 13.10371858219569
ONEWEB-0048             
1 45153U 20008Y   24222.38763390  .00000823  00000+0  23202-2 0  9992
2 45153  87.8978 170.9153 0002148  79.0059 281.1310 13.10374326219174
ONEWEB-0049             
1 45154U 20008Z   24222.38929021  .00000758  00000+0  21337-2 0  9992
2 45154  87.8983 170.8965 0002657  83.4057 276.7372 13.10378877219390
ONEWEB-0051             
1 45155U 20008AA  24222.56217115  .00000227  00000+0  60475-3 0  9995
2 45155  87.8997 155.7851 0001911  81.8853 278.2491 13.11415034222403
ONEWEB-0052             
1 45156U 20008AB  24222.38597491  .00000778  00000+0  21911-2 0  9996
2 45156  87.8975 170.8646 0002597  79.5940 280.5480 13.10374714219309
ONEWEB-0053             
1 45157U 20008AC  24222.36769862 -.00000088  00000+0 -28804-3 0  9993
2 45157  87.8983 170.9215 0002047  68.7072 291.4273 13.10377274219279
ONEWEB-0054             
1 45158U 20008AD  24222.55528299  .00000387  00000+0  10720-2 0  9999
2 45158  87.8973 170.8656 0002058  82.4363 277.6998 13.10371052219419
